NORAD_CAT_ID,OBJECT_NAME,OBJECT_TYPE,EPOCH,MEAN_MOTION,ECCENTRICITY,INCLINATION,RA_OF_ASC_NODE,ARG_OF_PERICENTER,MEAN_ANOMALY,BSTAR,MEAN_MOTION_DOT,MEAN_MOTION_DDOT,TLE_LINE0,TLE_LINE1,TLE_LINE2,SEMIMAJOR_AXIS,PERIOD,APOGEE,PERIGEE,DECAYED
53162.0,STARLINK-4114,PAYLOAD,2022-07-31 06:00:02,15.73187393,0.0001564,53.2188,339.2188,49.8116,60.9642,0.00043208,0.00060424,0.0,0 STARLINK-4114,1 53162U 22083AG  22212.25002315  .00060424  00000-0  43208-3 0  9995,2 53162  53.2188 339.2188 0001564  49.8116  60.9642 15.73187393  2809,6727.931,91.534,350.848,348.744,0.0
53162.0,STARLINK-4114,PAYLOAD,2022-07-31 14:00:01,15.73255785,0.0001702,53.2189,337.5711,42.75100000000001,156.8955,-0.00071162,-0.0009956,0.0,0 STARLINK-4114,1 53162U 22083AG  22212.58334491 -.00099560  00000-0 -71162-3 0  9999,2 53162  53.2189 337.5711 0001702  42.7510 156.8955 15.73255785  1304,6727.736,91.53,350.746,348.456,0.0
53162.0,STARLINK-4114,PAYLOAD,2022-07-31 20:00:01,15.73176127,0.0001702,53.2186,336.3346,34.8557,141.5256,0.00034078,0.00047428,0.0,0 STARLINK-4114,1 53162U 22083AG  22212.83334491  .00047428  00000-0  34078-3 0  9996,2 53162  53.2186 336.3346 0001702  34.8557 141.5256 15.73176127  2897,6727.9630000000025,91.535,350.973,348.68300000000005,0.0
53162.0,STARLINK-4114,PAYLOAD,2022-07-31 22:00:00,15.73197253,0.0001666999999999,53.2184,335.9217,34.9617,253.6435,7.934399999999999e-05,0.00010528,0.0,0 STARLINK-4114,1 53162U 22083AG  22212.91667824  .00010528  00000-0  79344-4 0  9991,2 53162  53.2184 335.9217 0001667  34.9617 253.6435 15.73197253  1307,6727.903,91.533,350.89,348.646,0.0
53162.0,STARLINK-4114,PAYLOAD,2022-08-01 14:00:01,15.7322953,0.0001568,53.2184,332.6232,31.7917,74.6861,-0.00058276,-0.00081722,0.0,0 STARLINK-4114,1 53162U 22083AG  22213.58334491 -.00081722  00000-0 -58276-3 0  9992,2 53162  53.2184 332.6232 0001568  31.7917  74.6861 15.73229530  3014,6727.811,91.531,350.731,348.621,0.0
53162.0,STARLINK-4114,PAYLOAD,2022-08-01 22:00:00,15.73202243,0.0001597,53.2183,330.9738,26.474,168.9318,4.9874e-06,8e-07,0.0,0 STARLINK-4114,1 53162U 22083AG  22213.91667824  .00000080  00000-0  49874-5 0  9990,2 53162  53.2183 330.9738 0001597  26.4740 168.9318 15.73202243  3063,6727.889,91.533,350.82800000000015,348.67900000000014,0.0
53162.0,STARLINK-4114,PAYLOAD,2022-08-02 14:00:01,15.73197153,0.000183,53.2187,327.6749,34.6384,338.6469,-0.000265,-0.00037643,0.0,0 STARLINK-4114,1 53162U 22083AG  22214.58334491 -.00037643  00000-0 -26500-3 0  9991,2 53162  53.2187 327.6749 0001830  34.6384 338.6469 15.73197153  1308,6727.903,91.533,350.999,348.537,0.0
53162.0,STARLINK-4114,PAYLOAD,2022-08-03 04:00:00,15.7318076,0.000171,53.2183,324.7869,36.8039,42.1011,0.00052993,0.00074352,0.0,0 STARLINK-4114,1 53162U 22083AG  22215.16667824  .00074352  00000-0  52993-3 0  9996,2 53162  53.2183 324.7869 0001710  36.8039  42.1011 15.73180760  3255,6727.95,91.534,350.966,348.665,0.0
53162.0,STARLINK-4114,PAYLOAD,2022-08-03 12:00:00,15.73262475,0.0001825,53.2183,323.1388,33.8052,134.0302,-0.00057276,-0.00080458,0.0,0 STARLINK-4114,1 53162U 22083AG  22215.50001157 -.00080458  00000-0 -57276-3 0  9990,2 53162  53.2183 323.1388 0001825  33.8052 134.0302 15.73262475  3318,6727.717,91.53,350.81,348.35400000000016,0.0
53162.0,STARLINK-4114,PAYLOAD,2022-08-03 14:00:01,15.73256756,0.0001875999999999,53.2181,322.7269,31.9049,248.1759,-0.00066571,-0.00093252,0.0,0 STARLINK-4114,1 53162U 22083AG  22215.58334491 -.00093252  00000-0 -66571-3 0  9992,2 53162  53.2181 322.7269 0001876  31.9049 248.1759 15.73256756  1305,6727.733,91.53,350.86,348.336,0.0
53162.0,STARLINK-4114,PAYLOAD,2022-08-03 20:00:01,15.73191286,0.0001898,53.2179,321.4898,26.3068,230.5096,0.00024925,0.00034492,0.0,0 STARLINK-4114,1 53162U 22083AG  22215.83334491  .00034492  00000-0  24925-3 0  9996,2 53162  53.2179 321.4898 0001898  26.3068 230.5096 15.73191286  3362,6727.92,91.534,351.06199999999984,348.5080000000001,0.0
53162.0,STARLINK-4114,PAYLOAD,2022-08-03 22:00:01,15.73214412,0.0001863,53.2181,321.0769,26.7857,342.3218,-3.5639e-05,-5.623e-05,0.0,0 STARLINK-4114,1 53162U 22083AG  22215.91668981 -.00005623  00000-0 -35639-4 0  9990,2 53162  53.2181 321.0769 0001863  26.7857 342.3218 15.73214412  1307,6727.854,91.532,350.972,348.466,0.0
53162.0,STARLINK-4114,PAYLOAD,2022-08-04 06:00:00,15.732082,0.0001802,53.2185,319.4257,34.7446,63.2358,-0.00024123,-0.00034351,0.0,0 STARLINK-4114,1 53162U 22083AG  22216.25001157 -.00034351  00000-0 -24123-3 0  9999,2 53162  53.2185 319.4257 0001802  34.7446  63.2358 15.73208200  3438,6727.871999999999,91.533,350.949,348.524,0.0
53162.0,STARLINK-4114,PAYLOAD,2022-08-04 14:00:01,15.73180788,0.0002136,53.2184,317.7783,33.0926,153.819,0.00011958,0.00016181,0.0,0 STARLINK-4114,1 53162U 22083AG  22216.58334491  .00016181  00000-0  11958-3 0  9996,2 53162  53.2184 317.7783 0002136  33.0926 153.8190 15.73180788  1302,6727.95,91.534,351.25199999999984,348.37800000000016,0.0
53162.0,STARLINK-4114,PAYLOAD,2022-08-04 20:00:01,15.73222657,0.0002124,53.2181,316.5412,29.6199,133.9662,-0.00056216,-0.00078866,0.0,0 STARLINK-4114,1 53162U 22083AG  22216.83334491 -.00078866  00000-0 -56216-3 0  9990,2 53162  53.2181 316.5412 0002124  29.6199 133.9662 15.73222657  3526,6727.831,91.532,351.125,348.267,0.0
53162.0,STARLINK-4114,PAYLOAD,2022-08-04 22:00:00,15.73224096,0.0002039,53.2181,316.1282,29.5175,246.3004,-0.00074683,-0.00104262,0.0,0 STARLINK-4114,1 53162U 22083AG  22216.91667824 -.00104262  00000-0 -74683-3 0  9996,2 53162  53.2181 316.1282 0002039  29.5175 246.3004 15.73224096  1307,6727.826,91.532,351.06300000000016,348.32,0.0
53162.0,STARLINK-4114,PAYLOAD,2022-08-05 04:00:00,15.73131395,0.0001855999999999,53.218,314.8899,29.474,223.046,0.00053958,0.00075569,0.0,0 STARLINK-4114,1 53162U 22083AG  22217.16667824  .00075569  00000-0  53958-3 0  9991,2 53162  53.2180 314.8899 0001856  29.4740 223.0460 15.73131395  3576,6728.090999999999,91.537,351.205,348.707,0.0
53162.0,STARLINK-4114,PAYLOAD,2022-08-05 14:00:01,15.73186433,0.0002129,53.218,312.8303,27.6911,66.0081,0.00017589,0.00024122,0.0,0 STARLINK-4114,1 53162U 22083AG  22217.58335648  .00024122  00000-0  17589-3 0  9992,2 53162  53.2180 312.8303 0002129  27.6911  66.0081 15.73186433  1304,6727.934,91.534,351.231,348.366,0.0
53162.0,STARLINK-4114,PAYLOAD,2022-08-05 22:00:00,15.73234018,0.0002109999999999,53.2181,311.1799,27.1473,155.4089,-4.2073e-05,-6.531e-05,0.0,0 STARLINK-4114,1 53162U 22083AG  22217.91667824 -.00006531  00000-0 -42073-4 0  9996,2 53162  53.2181 311.1799 0002110  27.1473 155.4089 15.73234018  3692,6727.7980000000025,91.531,351.083,348.244,0.0
53162.0,STARLINK-4114,PAYLOAD,2022-08-06 14:00:01,15.73197684,0.0002423,53.2185,307.8815,32.5975,327.8918,0.00014478,0.00019745,0.0,0 STARLINK-4114,1 53162U 22083AG  22218.58334491  .00019745  00000-0  14478-3 0  9997,2 53162  53.2185 307.8815 0002423  32.5975 327.8918 15.73197684  1311,6727.901999999999,91.533,351.397,348.13699999999994,0.0
53162.0,STARLINK-4114,PAYLOAD,2022-08-06 22:00:00,15.73233207,0.0002295,53.2183,306.231,29.1978,60.2282,-0.00055974,-0.00078569,0.0,0 STARLINK-4114,1 53162U 22083AG  22218.91667824 -.00078569  00000-0 -55974-3 0  9990,2 53162  53.2183 306.2310 0002295  29.1978  60.2282 15.73233207  1307,6727.801,91.531,351.21,348.121,0.0
53162.0,STARLINK-4114,PAYLOAD,2022-08-07 04:00:00,15.73152505,0.0002148,53.2182,304.993,31.0001,35.1252,0.00047212,0.00066029,0.0,0 STARLINK-4114,1 53162U 22083AG  22219.16667824  .00066029  00000-0  47212-3 0  9990,2 53162  53.2182 304.9930 0002148  31.0001  35.1252 15.73152505  3889,6728.031,91.536,351.341,348.45,0.0
53162.0,STARLINK-4114,PAYLOAD,2022-08-07 12:52:07,15.73213979,0.0002308,53.2184,303.1653,30.1078,330.0075,6.389e-05,8.36e-05,0.0,0 STARLINK-4114,1 53162U 22083AG  22219.53619724  .00008360  00000-0  63890-4 0  9992,2 53162  53.2184 303.1653 0002308  30.1078 330.0075 15.73213979  3328,6727.855,91.532,351.273,348.168,0.0
53162.0,STARLINK-4114,PAYLOAD,2022-08-07 20:00:01,15.732578,0.0002349,53.2179,301.6957,23.9937,219.9865,-0.0006332,-0.00088787,0.0,0 STARLINK-4114,1 53162U 22083AG  22219.83334491 -.00088787  00000-0 -63320-3 0  9990,2 53162  53.2179 301.6957 0002349  23.9937 219.9865 15.73257800  3997,6727.73,91.53,351.176,348.015,0.0
53162.0,STARLINK-4114,PAYLOAD,2022-08-07 22:00:00,15.73229539,0.0002254999999999,53.2182,301.2828,24.2258,332.0041,-0.00033816,-0.00047876,0.0,0 STARLINK-4114,1 53162U 22083AG  22219.91667824 -.00047876  00000-0 -33816-3 0  9999,2 53162  53.2182 301.2828 0002255  24.2258 332.0041 15.73229539  1304,6727.811,91.531,351.1930000000001,348.159,0.0
53162.0,STARLINK-4114,PAYLOAD,2022-08-08 04:00:00,15.73183121,0.0002173,53.2183,300.0445,25.0813,307.8634,0.00062139,0.00087441,0.0,0 STARLINK-4114,1 53162U 22083AG  22220.16667824  .00087441  00000-0  62139-3 0  9998,2 53162  53.2183 300.0445 0002173  25.0813 307.8634 15.73183121  4040,6727.943,91.534,351.27,348.346,0.0
53162.0,STARLINK-4114,PAYLOAD,2022-08-08 14:00:01,15.73269251,0.0002505999999999,53.2186,297.985,22.2696,151.9487,-7.2707e-05,-0.00010845,0.0,0 STARLINK-4114,1 53162U 22083AG  22220.58335648 -.00010845  00000-0 -72707-4 0  9999,2 53162  53.2186 297.9850 0002506  22.2696 151.9487 15.73269251  1304,6727.698,91.529,351.249,347.87699999999984,0.0
53162.0,STARLINK-4114,PAYLOAD,2022-08-08 20:00:01,15.73311609,0.0002484,53.2183,296.747,20.2999,130.6846,-0.00090653,-0.00126578,0.0,0 STARLINK-4114,1 53162U 22083AG  22220.83335648 -.00126578  00000-0 -90653-3 0  9997,2 53162  53.2183 296.7470 0002484  20.2999 130.6846 15.73311609  4159,6727.5769999999975,91.527,351.11300000000006,347.771,0.0
53162.0,STARLINK-4114,PAYLOAD,2022-08-08 22:00:00,15.73283897,0.0002403,53.2184,296.334,21.1434,242.0377,-0.00071061,-0.00099552,0.0,0 STARLINK-4114,1 53162U 22083AG  22220.91667824 -.00099552  00000-0 -71061-3 0  9993,2 53162  53.2184 296.3340 0002403  21.1434 242.0377 15.73283897  1305,6727.656,91.528,351.13800000000015,347.904,0.0
